{
  "type": "FeatureCollection",
  "features": [
    {
      "type": "Feature",
      "properties": {
        "norad_id": 30395,
        "name": "FENGYUN 1C DEB",
        "group": "fengyun-1c-debris",
        "lat": -75.4360568723353,
        "lon": 136.31597892204127,
        "alt_km": 1016.179325397361,
        "timestamp": "2025-12-03T17:47:50.993730+00:00",
        "meta_object_name": "FENGYUN 1C DEB",
        "meta_object_id": "1999-025ADJ",
        "meta_epoch": "2025-12-02T23:40:42.843936",
        "meta_mean_motion": 13.96668436,
        "meta_eccentricity": 0.01608614,
        "meta_inclination": 98.9309,
        "meta_ra_of_asc_node": 352.8289,
        "meta_arg_of_pericenter": 53.0073,
        "meta_mean_anomaly": 12.437,
        "meta_ephemeris_type": 0,
        "meta_classification_type": "U",
        "meta_norad_cat_id": 30395,
        "meta_element_set_no": 999,
        "meta_rev_at_epoch": 95887,
        "meta_bstar": 0.00072495004,
        "meta_mean_motion_dot": 1.079e-05,
        "meta_mean_motion_ddot": 0,
        "tle_line1": "1 30395U 99025ADJ 25336.98660699  .00001079  00000+0  72495-3 0  9993",
        "tle_line2": "2 30395  98.9309 352.8289 0160861  53.0073  12.4370 13.96668436958873"
      },
      "geometry": {
        "type": "Point",
        "coordinates": [
          136.31597892204127,
          -75.4360568723353
        ]
      }
    },
    {
      "type": "Feature",
      "properties": {
        "norad_id": 30396,
        "name": "FENGYUN 1C DEB",
        "group": "fengyun-1c-debris",
        "lat": 31.918752597827897,
        "lon": 168.79290998536655,
        "alt_km": 838.839222754521,
        "timestamp": "2025-12-03T17:47:50.993740+00:00",
        "meta_object_name": "FENGYUN 1C DEB",
        "meta_object_id": "1999-025ADK",
        "meta_epoch": "2025-12-03T06:49:01.302240",
        "meta_mean_motion": 13.87164627,
        "meta_eccentricity": 0.0134626,
        "meta_inclination": 98.2241,
        "meta_ra_of_asc_node": 343.2216,
        "meta_arg_of_pericenter": 155.746,
        "meta_mean_anomaly": 228.5598,
        "meta_ephemeris_type": 0,
        "meta_classification_type": "U",
        "meta_norad_cat_id": 30396,
        "meta_element_set_no": 999,
        "meta_rev_at_epoch": 95448,
        "meta_bstar": 0.00016351,
        "meta_mean_motion_dot": 1.71e-06,
        "meta_mean_motion_ddot": 0,
        "tle_line1": "1 30396U 99025ADK 25337.28404285  .00000171  00000+0  16351-3 0  9996",
        "tle_line2": "2 30396  98.2241 343.2216 0134626 155.7460 228.5598 13.87164627954484"
      },
      "geometry": {
        "type": "Point",
        "coordinates": [
          168.79290998536655,
          31.918752597827897
        ]
      }
    },
    {
      "type": "Feature",
      "properties": {
        "norad_id": 30397,
        "name": "FENGYUN 1C DEB",
        "group": "fengyun-1c-debris",
        "lat": 22.59991522584132,
        "lon": 123.15740341173556,
        "alt_km": 905.8303696184748,
        "timestamp": "2025-12-03T17:47:50.993750+00:00",
        "meta_object_name": "FENGYUN 1C DEB",
        "meta_object_id": "1999-025ADL",
        "meta_epoch": "2025-12-03T09:21:38.000160",
        "meta_mean_motion": 13.98537166,
        "meta_eccentricity": 0.0149884,
        "meta_inclination": 98.4058,
        "meta_ra_of_asc_node": 126.3637,
        "meta_arg_of_pericenter": 118.6927,
        "meta_mean_anomaly": 297.0615,
        "meta_ephemeris_type": 0,
        "meta_classification_type": "U",
        "meta_norad_cat_id": 30397,
        "meta_element_set_no": 999,
        "meta_rev_at_epoch": 95634,
        "meta_bstar": 0.0016014,
        "meta_mean_motion_dot": 2.489e-05,
        "meta_mean_motion_ddot": 0,
        "tle_line1": "1 30397U 99025ADL 25337.39002315  .00002489  00000+0  16014-2 0  9996",
        "tle_line2": "2 30397  98.4058 126.3637 0149884 118.6927 297.0615 13.98537166956340"
      },
      "geometry": {
        "type": "Point",
        "coordinates": [
          123.15740341173556,
          22.59991522584132
        ]
      }
    },
    {
      "type": "Feature",
      "properties": {
        "norad_id": 30398,
        "name": "FENGYUN 1C DEB",
        "group": "fengyun-1c-debris",
        "lat": 4.506305193650261,
        "lon": -126.73134740763311,
        "alt_km": 879.9284951104019,
        "timestamp": "2025-12-03T17:47:50.993760+00:00",
        "meta_object_name": "FENGYUN 1C DEB",
        "meta_object_id": "1999-025ADM",
        "meta_epoch": "2025-12-02T14:28:20.258400",
        "meta_mean_motion": 13.78679198,
        "meta_eccentricity": 0.01732081,
        "meta_inclination": 99.7139,
        "meta_ra_of_asc_node": 232.8761,
        "meta_arg_of_pericenter": 322.5063,
        "meta_mean_anomaly": 152.8464,
        "meta_ephemeris_type": 0,
        "meta_classification_type": "U",
        "meta_norad_cat_id": 30398,
        "meta_element_set_no": 999,
        "meta_rev_at_epoch": 94617,
        "meta_bstar": 0.00069686465,
        "meta_mean_motion_dot": 7.43e-06,
        "meta_mean_motion_ddot": 0,
        "tle_line1": "1 30398U 99025ADM 25336.60301225  .00000743  00000+0  69686-3 0  9997",
        "tle_line2": "2 30398  99.7139 232.8761 0173208 322.5063 152.8464 13.78679198946170"
      },
      "geometry": {
        "type": "Point",
        "coordinates": [
          -126.73134740763311,
          4.506305193650261
        ]
      }
    },
    {
      "type": "Feature",
      "properties": {
        "norad_id": 30400,
        "name": "FENGYUN 1C DEB",
        "group": "fengyun-1c-debris",
        "lat": -75.41084820190183,
        "lon": 46.81093667398213,
        "alt_km": 898.9664947337196,
        "timestamp": "2025-12-03T17:47:50.993770+00:00",
        "meta_object_name": "FENGYUN 1C DEB",
        "meta_object_id": "1999-025ADP",
        "meta_epoch": "2025-12-03T08:37:26.582016",
        "meta_mean_motion": 14.09670907,
        "meta_eccentricity": 0.0228496,
        "meta_inclination": 99.1557,
        "meta_ra_of_asc_node": 264.7102,
        "meta_arg_of_pericenter": 1.8015,
        "meta_mean_anomaly": 120.6695,
        "meta_ephemeris_type": 0,
        "meta_classification_type": "U",
        "meta_norad_cat_id": 30400,
        "meta_element_set_no": 999,
        "meta_rev_at_epoch": 95382,
        "meta_bstar": 0.0060422,
        "meta_mean_motion_dot": 0.00013475,
        "meta_mean_motion_ddot": 0,
        "tle_line1": "1 30400U 99025ADP 25337.35933544  .00013475  00000+0  60422-2 0  9993",
        "tle_line2": "2 30400  99.1557 264.7102 0228496   1.8015 120.6695 14.09670907953822"
      },
      "geometry": {
        "type": "Point",
        "coordinates": [
          46.81093667398213,
          -75.41084820190183
        ]
      }
    },
    {
      "type": "Feature",
      "properties": {
        "norad_id": 30401,
        "name": "FENGYUN 1C DEB",
        "group": "fengyun-1c-debris",
        "lat": 54.38860524869171,
        "lon": -158.29755672388626,
        "alt_km": 803.2042628024919,
        "timestamp": "2025-12-03T17:47:50.993780+00:00",
        "meta_object_name": "FENGYUN 1C DEB",
        "meta_object_id": "1999-025ADQ",
        "meta_epoch": "2025-12-03T02:24:03.465504",
        "meta_mean_motion": 14.27979288,
        "meta_eccentricity": 0.01074766,
        "meta_inclination": 98.9477,
        "meta_ra_of_asc_node": 213.7527,
        "meta_arg_of_pericenter": 155.2919,
        "meta_mean_anomaly": 205.3464,
        "meta_ephemeris_type": 0,
        "meta_classification_type": "U",
        "meta_norad_cat_id": 30401,
        "meta_element_set_no": 999,
        "meta_rev_at_epoch": 98166,
        "meta_bstar": 0.00019004,
        "meta_mean_motion_dot": 4.55e-06,
        "meta_mean_motion_ddot": 0,
        "tle_line1": "1 30401U 99025ADQ 25337.10004011  .00000455  00000+0  19004-3 0  9990",
        "tle_line2": "2 30401  98.9477 213.7527 0107476 155.2919 205.3464 14.27979288981669"
      },
      "geometry": {
        "type": "Point",
        "coordinates": [
          -158.29755672388626,
          54.38860524869171
        ]
      }
    },
    {
      "type": "Feature",
      "properties": {
        "norad_id": 30403,
        "name": "FENGYUN 1C DEB",
        "group": "fengyun-1c-debris",
        "lat": 75.37817446085899,
        "lon": 18.222187171846777,
        "alt_km": 765.9237522624371,
        "timestamp": "2025-12-03T17:47:50.993791+00:00",
        "meta_object_name": "FENGYUN 1C DEB",
        "meta_object_id": "1999-025ADS",
        "meta_epoch": "2025-12-03T10:40:37.510176",
        "meta_mean_motion": 14.21407183,
        "meta_eccentricity": 0.0075353,
        "meta_inclination": 99.0609,
        "meta_ra_of_asc_node": 55.6279,
        "meta_arg_of_pericenter": 50.1764,
        "meta_mean_anomaly": 310.6012,
        "meta_ephemeris_type": 0,
        "meta_classification_type": "U",
        "meta_norad_cat_id": 30403,
        "meta_element_set_no": 999,
        "meta_rev_at_epoch": 96674,
        "meta_bstar": 0.0026654,
        "meta_mean_motion_dot": 5.951e-05,
        "meta_mean_motion_ddot": 0,
        "tle_line1": "1 30403U 99025ADS 25337.44487859  .00005951  00000+0  26654-2 0  9998",
        "tle_line2": "2 30403  99.0609  55.6279 0075353  50.1764 310.6012 14.21407183966741"
      },
      "geometry": {
        "type": "Point",
        "coordinates": [
          18.222187171846777,
          75.37817446085899
        ]
      }
    }
  ]
}